{
    "links": {
        "self": "http://www.neowsapp.com/rest/v1/neo/3692290?api_key=iIulBulltgU6a56xZRHN4H3l9WmuAYTsLGpBGhQ2"
    },
    "id": "3692290",
    "neo_reference_id": "3692290",
    "name": "(2014 TM)",
    "designation": "2014 TM",
    "nasa_jpl_url": "http://ssd.jpl.nasa.gov/sbdb.cgi?sstr=3692290",
    "absolute_magnitude_h": 26.2,
    "estimated_diameter": {
        "kilometers": {
            "estimated_diameter_min": 0.0152951935,
            "estimated_diameter_max": 0.0342010925
        },
        "meters": {
            "estimated_diameter_min": 15.2951935344,
            "estimated_diameter_max": 34.201092472
        },
        "miles": {
            "estimated_diameter_min": 0.0095039897,
            "estimated_diameter_max": 0.021251567
        },
        "feet": {
            "estimated_diameter_min": 50.1810827555,
            "estimated_diameter_max": 112.2083122258
        }
    },
    "is_potentially_hazardous_asteroid": false,
    "close_approach_data": [
        {
            "close_approach_date": "2001-01-11",
            "close_approach_date_full": "2001-Jan-11 17:58",
            "epoch_date_close_approach": 979235880000,
            "relative_velocity": {
                "kilometers_per_second": "13.4857850615",
                "kilometers_per_hour": "48548.8262212816",
                "miles_per_hour": "30166.3526039958"
            },
            "miss_distance": {
                "astronomical": "0.3457415072",
                "lunar": "134.4934463008",
                "kilometers": "51722193.047709664",
                "miles": "32138680.4694308032"
            },
            "orbiting_body": "Earth"
        },
        {
            "close_approach_date": "2014-10-05",
            "close_approach_date_full": "2014-Oct-05 07:13",
            "epoch_date_close_approach": 1412493180000,
            "relative_velocity": {
                "kilometers_per_second": "7.0343318739",
                "kilometers_per_hour": "25323.5947461945",
                "miles_per_hour": "15735.0969688229"
            },
            "miss_distance": {
                "astronomical": "0.0094456666",
                "lunar": "3.6743643074",
                "kilometers": "1413051.604090142",
                "miles": "878029.5520102796"
            },
            "orbiting_body": "Moon"
        },
        {
            "close_approach_date": "2014-10-05",
            "close_approach_date_full": "2014-Oct-05 15:44",
            "epoch_date_close_approach": 1412523840000,
            "relative_velocity": {
                "kilometers_per_second": "6.7565819037",
                "kilometers_per_hour": "24323.6948533766",
                "miles_per_hour": "15113.7980604217"
            },
            "miss_distance": {
                "astronomical": "0.0115286652",
                "lunar": "4.4846507628",
                "kilometers": "1724663.757863124",
                "miles": "1071656.3657701512"
            },
            "orbiting_body": "Earth"
        },
        {
            "close_approach_date": "2015-01-23",
            "close_approach_date_full": "2015-Jan-23 11:11",
            "epoch_date_close_approach": 1422011460000,
            "relative_velocity": {
                "kilometers_per_second": "3.5490069334",
                "kilometers_per_hour": "12776.4249602246",
                "miles_per_hour": "7938.7736093129"
            },
            "miss_distance": {
                "astronomical": "0.2389879996",
                "lunar": "92.9663318444",
                "kilometers": "35752095.695720852",
                "miles": "22215322.1271456776"
            },
            "orbiting_body": "Earth"
        }
    ],
    "orbital_data": {
        "orbit_id": "6",
        "orbit_determination_date": "2017-04-06 08:38:17",
        "first_observation_date": "2014-10-02",
        "last_observation_date": "2014-10-03",
        "data_arc_in_days": 1,
        "observations_used": 24,
        "orbit_uncertainty": "7",
        "minimum_orbit_intersection": ".00957687",
        "jupiter_tisserand_invariant": "5.099",
        "epoch_osculation": "2459000.5",
        "eccentricity": ".232254295411127",
        "semi_major_axis": "1.251311852092019",
        "inclination": "9.735008194213073",
        "ascending_node_longitude": "9.453508906392587",
        "orbital_period": "511.2658253158783",
        "perihelion_distance": ".9606892995447948",
        "perihelion_argument": "42.91770312708825",
        "aphelion_distance": "1.541934404639244",
        "perihelion_time": "2459017.363044391405",
        "mean_anomaly": "348.1261455776846",
        "mean_motion": ".7041346833177812",
        "equinox": "J2000",
        "orbit_class": {
            "orbit_class_type": "APO",
            "orbit_class_description": "Near-Earth asteroid orbits which cross the Earth’s orbit similar to that of 1862 Apollo",
            "orbit_class_range": "a (semi-major axis) > 1.0 AU; q (perihelion) < 1.017 AU"
        }
    },
    "is_sentry_object": false
}